O3B MPOWER F1           
1 54755U 22174A   23260.39718477 -.00000017  00000+0  00000+0 0  9998
2 54755   0.0464  16.5326 0004804 174.2532 357.8909  5.00118442 15142
